{
  "type": "FeatureCollection",
  "features": [
    {
      "type": "Feature",
      "properties": {
        "norad_id": 44873,
        "name": "CSG-1",
        "group": "resource",
        "lat": 9.365953328775149,
        "lon": 165.40952057189128,
        "alt_km": 623.9695217571962,
        "timestamp": "2025-12-11T08:58:26.772007+00:00",
        "meta_object_name": "CSG-1",
        "meta_object_id": "2019-092A",
        "meta_epoch": "2025-12-11T04:04:14.964960",
        "meta_mean_motion": 14.82160692,
        "meta_eccentricity": 0.0001444,
        "meta_inclination": 97.881,
        "meta_ra_of_asc_node": 166.5175,
        "meta_arg_of_pericenter": 85.0167,
        "meta_mean_anomaly": 275.1211,
        "meta_ephemeris_type": 0,
        "meta_classification_type": "U",
        "meta_norad_cat_id": 44873,
        "meta_element_set_no": 999,
        "meta_rev_at_epoch": 32362,
        "meta_bstar": 0.00013075,
        "meta_mean_motion_dot": 9.89e-06,
        "meta_mean_motion_ddot": 0,
        "tle_line1": "1 44873U 19092A   25345.16961765  .00000989  00000+0  13075-3 0  9991",
        "tle_line2": "2 44873  97.8810 166.5175 0001444  85.0167 275.1211 14.82160692323626"
      },
      "geometry": {
        "type": "Point",
        "coordinates": [
          165.40952057189128,
          9.365953328775149
        ]
      }
    },
    {
      "type": "Feature",
      "properties": {
        "norad_id": 46277,
        "name": "NEMO-HD",
        "group": "resource",
        "lat": -62.141142003607975,
        "lon": -149.39136651246045,
        "alt_km": 453.8546462928416,
        "timestamp": "2025-12-11T08:58:26.772017+00:00",
        "meta_object_name": "NEMO-HD",
        "meta_object_id": "2020-061F",
        "meta_epoch": "2025-12-11T04:48:14.705280",
        "meta_mean_motion": 15.40274146,
        "meta_eccentricity": 0.0001987,
        "meta_inclination": 97.2212,
        "meta_ra_of_asc_node": 44.3172,
        "meta_arg_of_pericenter": 58.0601,
        "meta_mean_anomaly": 302.0838,
        "meta_ephemeris_type": 0,
        "meta_classification_type": "U",
        "meta_norad_cat_id": 46277,
        "meta_element_set_no": 999,
        "meta_rev_at_epoch": 29300,
        "meta_bstar": 0.0004022,
        "meta_mean_motion_dot": 0.00016125,
        "meta_mean_motion_ddot": 0,
        "tle_line1": "1 46277U 20061F   25345.20017020  .00016125  00000+0  40220-3 0  9991",
        "tle_line2": "2 46277  97.2212  44.3172 0001987  58.0601 302.0838 15.40274146293009"
      },
      "geometry": {
        "type": "Point",
        "coordinates": [
          -149.39136651246045,
          -62.141142003607975
        ]
      }
    },
    {
      "type": "Feature",
      "properties": {
        "norad_id": 46984,
        "name": "SENTINEL-6A",
        "group": "resource",
        "lat": -63.567059372323236,
        "lon": 101.70495711006141,
        "alt_km": 1338.234254460208,
        "timestamp": "2025-12-11T08:58:26.772028+00:00",
        "meta_object_name": "SENTINEL-6A",
        "meta_object_id": "2020-086A",
        "meta_epoch": "2025-12-10T18:23:32.214912",
        "meta_mean_motion": 12.80930554,
        "meta_eccentricity": 0.0007731,
        "meta_inclination": 66.039,
        "meta_ra_of_asc_node": 166.4071,
        "meta_arg_of_pericenter": 269.1652,
        "meta_mean_anomaly": 90.8477,
        "meta_ephemeris_type": 0,
        "meta_classification_type": "U",
        "meta_norad_cat_id": 46984,
        "meta_element_set_no": 999,
        "meta_rev_at_epoch": 23619,
        "meta_bstar": 9.1963369e-05,
        "meta_mean_motion_dot": -4e-07,
        "meta_mean_motion_ddot": 0,
        "tle_line1": "1 46984U 20086A   25344.76634508 -.00000040  00000+0  91963-4 0  9990",
        "tle_line2": "2 46984  66.0390 166.4071 0007731 269.1652  90.8477 12.80930554236194"
      },
      "geometry": {
        "type": "Point",
        "coordinates": [
          101.70495711006141,
          -63.567059372323236
        ]
      }
    },
    {
      "type": "Feature",
      "properties": {
        "norad_id": 48079,
        "name": "GAOFEN-12 02",
        "group": "resource",
        "lat": -79.2402318455723,
        "lon": 27.004671441958553,
        "alt_km": 636.9921520152375,
        "timestamp": "2025-12-11T08:58:26.772038+00:00",
        "meta_object_name": "GAOFEN-12 02",
        "meta_object_id": "2021-026A",
        "meta_epoch": "2025-12-11T04:28:55.389216",
        "meta_mean_motion": 14.80672026,
        "meta_eccentricity": 0.0003512,
        "meta_inclination": 97.9851,
        "meta_ra_of_asc_node": 339.2007,
        "meta_arg_of_pericenter": 104.2697,
        "meta_mean_anomaly": 255.8905,
        "meta_ephemeris_type": 0,
        "meta_classification_type": "U",
        "meta_norad_cat_id": 48079,
        "meta_element_set_no": 999,
        "meta_rev_at_epoch": 25394,
        "meta_bstar": 0.00011487,
        "meta_mean_motion_dot": 8.3e-06,
        "meta_mean_motion_ddot": 0,
        "tle_line1": "1 48079U 21026A   25345.18675219  .00000830  00000+0  11487-3 0  9991",
        "tle_line2": "2 48079  97.9851 339.2007 0003512 104.2697 255.8905 14.80672026253946"
      },
      "geometry": {
        "type": "Point",
        "coordinates": [
          27.004671441958553,
          -79.2402318455723
        ]
      }
    },
    {
      "type": "Feature",
      "properties": {
        "norad_id": 48268,
        "name": "PLEIADES NEO 3",
        "group": "resource",
        "lat": -20.588535766679648,
        "lon": 60.82185831883627,
        "alt_km": 629.6517279144173,
        "timestamp": "2025-12-11T08:58:26.772049+00:00",
        "meta_object_name": "PLEIADES NEO 3",
        "meta_object_id": "2021-034A",
        "meta_epoch": "2025-12-11T04:12:19.535040",
        "meta_mean_motion": 14.81677914,
        "meta_eccentricity": 0.000138,
        "meta_inclination": 97.8943,
        "meta_ra_of_asc_node": 57.6383,
        "meta_arg_of_pericenter": 91.5102,
        "meta_mean_anomaly": 268.6269,
        "meta_ephemeris_type": 0,
        "meta_classification_type": "U",
        "meta_norad_cat_id": 48268,
        "meta_element_set_no": 999,
        "meta_rev_at_epoch": 24981,
        "meta_bstar": 0.00029208,
        "meta_mean_motion_dot": 2.247e-05,
        "meta_mean_motion_ddot": 0,
        "tle_line1": "1 48268U 21034A   25345.17522610  .00002247  00000+0  29208-3 0  9999",
        "tle_line2": "2 48268  97.8943  57.6383 0001380  91.5102 268.6269 14.81677914249813"
      },
      "geometry": {
        "type": "Point",
        "coordinates": [
          60.82185831883627,
          -20.588535766679648
        ]
      }
    },
    {
      "type": "Feature",
      "properties": {
        "norad_id": 49070,
        "name": "PLEIADES NEO 4",
        "group": "resource",
        "lat": 20.218043227694704,
        "lon": -119.2404749210975,
        "alt_km": 623.856051421084,
        "timestamp": "2025-12-11T08:58:26.772059+00:00",
        "meta_object_name": "PLEIADES NEO 4",
        "meta_object_id": "2021-073E",
        "meta_epoch": "2025-12-09T14:07:00.443712",
        "meta_mean_motion": 14.81679595,
        "meta_eccentricity": 0.0001363,
        "meta_inclination": 97.8947,
        "meta_ra_of_asc_node": 56.0703,
        "meta_arg_of_pericenter": 89.0853,
        "meta_mean_anomaly": 271.0516,
        "meta_ephemeris_type": 0,
        "meta_classification_type": "U",
        "meta_norad_cat_id": 49070,
        "meta_element_set_no": 999,
        "meta_rev_at_epoch": 23329,
        "meta_bstar": 7.8728e-05,
        "meta_mean_motion_dot": 5.68e-06,
        "meta_mean_motion_ddot": 0,
        "tle_line1": "1 49070U 21073E   25343.58819958  .00000568  00000+0  78728-4 0  9997",
        "tle_line2": "2 49070  97.8947  56.0703 0001363  89.0853 271.0516 14.81679595233299"
      },
      "geometry": {
        "type": "Point",
        "coordinates": [
          -119.2404749210975,
          20.218043227694704
        ]
      }
    },
    {
      "type": "Feature",
      "properties": {
        "norad_id": 49260,
        "name": "LANDSAT 9",
        "group": "resource",
        "lat": -62.14636140906557,
        "lon": 69.35978968216686,
        "alt_km": 710.3667079188144,
        "timestamp": "2025-12-11T08:58:26.772069+00:00",
        "meta_object_name": "LANDSAT 9",
        "meta_object_id": "2021-088A",
        "meta_epoch": "2025-12-10T21:43:40.110240",
        "meta_mean_motion": 14.57127299,
        "meta_eccentricity": 0.0001124,
        "meta_inclination": 98.2097,
        "meta_ra_of_asc_node": 53.0431,
        "meta_arg_of_pericenter": 95.249,
        "meta_mean_anomaly": 264.8836,
        "meta_ephemeris_type": 0,
        "meta_classification_type": "U",
        "meta_norad_cat_id": 49260,
        "meta_element_set_no": 999,
        "meta_rev_at_epoch": 22358,
        "meta_bstar": 0.00016389,
        "meta_mean_motion_dot": 6.93e-06,
        "meta_mean_motion_ddot": 0,
        "tle_line1": "1 49260U 21088A   25344.90532535  .00000693  00000+0  16389-3 0  9997",
        "tle_line2": "2 49260  98.2097  53.0431 0001124  95.2490 264.8836 14.57127299223585"
      },
      "geometry": {
        "type": "Point",
        "coordinates": [
          69.35978968216686,
          -62.14636140906557
        ]
      }
    }
  ]
}